NORAD_CAT_ID,OBJECT_NAME,OBJECT_TYPE,EPOCH,MEAN_MOTION,ECCENTRICITY,INCLINATION,RA_OF_ASC_NODE,ARG_OF_PERICENTER,MEAN_ANOMALY,BSTAR,MEAN_MOTION_DOT,MEAN_MOTION_DDOT,TLE_LINE0,TLE_LINE1,TLE_LINE2,SEMIMAJOR_AXIS,PERIOD,APOGEE,PERIGEE,DECAYED
52307.0,STARLINK-3755,PAYLOAD,2022-06-07 22:00:00,15.67492125,0.0001115,53.2174,141.1519,67.4422,5.0793,-0.0070503999999999,-0.00715929,0.0,0 STARLINK-3755,1 52307U 22041AY  22158.91667824 -.00715929  00000-0 -70504-2 0  9990,2 52307  53.2174 141.1519 0001115  67.4422   5.0793 15.67492125  1306,6744.218000000003,91.866,366.835,365.331,0.0
52307.0,STARLINK-3755,PAYLOAD,2022-06-08 06:00:02,15.66983014,0.0001363,53.2173,139.5215,58.3143,96.0283,-0.0072133,-0.0071731,0.0,0 STARLINK-3755,1 52307U 22041AY  22159.25002315 -.00717310  00000-0 -72133-2 0  9992,2 52307  53.2173 139.5215 0001363  58.3143  96.0283 15.66983014  8709,6745.679,91.896,368.463,366.624,0.0
52307.0,STARLINK-3755,PAYLOAD,2022-06-08 14:00:01,15.66474358,0.0001178,53.2174,137.8895,89.3671,146.0549,-0.0073925,-0.00719799,0.0,0 STARLINK-3755,1 52307U 22041AY  22159.58334491 -.00719799  00000-0 -73925-2 0  9994,2 52307  53.2174 137.8895 0001178  89.3671 146.0549 15.66474358  1305,6747.139,91.926,369.799,368.209,0.0
52307.0,STARLINK-3755,PAYLOAD,2022-06-08 22:00:01,15.65961522,0.0001145,53.2177,136.2582,72.8344,243.186,-0.0074821,-0.00714033,0.0,0 STARLINK-3755,1 52307U 22041AY  22159.91668981 -.00714033  00000-0 -74821-2 0  9997,2 52307  53.2177 136.2582 0001145  72.8344 243.1860 15.65961522  1300,6748.611999999999,91.956,371.25,369.704,0.0
52307.0,STARLINK-3755,PAYLOAD,2022-06-09 06:00:00,15.65454695,0.0001185,53.2176,134.6318,60.1133,335.7585,-0.0077027,-0.00719705,0.0,0 STARLINK-3755,1 52307U 22041AY  22160.25001157 -.00719705  00000-0 -77027-2 0  9994,2 52307  53.2176 134.6318 0001185  60.1133 335.7585 15.65454695  8866,6750.068,91.986,372.733,371.133,0.0
52307.0,STARLINK-3755,PAYLOAD,2022-06-09 14:00:01,15.64943251,0.0001145,53.2173,133.0032,69.937,45.2421,-0.0078311,-0.00717044,0.0,0 STARLINK-3755,1 52307U 22041AY  22160.58334491 -.00717044  00000-0 -78311-2 0  9991,2 52307  53.2173 133.0032 0001145  69.9370  45.2421 15.64943251  1309,6751.5390000000025,92.016,374.177,372.631,0.0
52307.0,STARLINK-3755,PAYLOAD,2022-06-09 22:00:00,15.64433096,0.0001261,53.2175,131.376,73.0318,120.8409,-0.007972,-0.00715368,0.0,0 STARLINK-3755,1 52307U 22041AY  22160.91667824 -.00715368  00000-0 -79720-2 0  9999,2 52307  53.2175 131.3760 0001261  73.0318 120.8409 15.64433096  1304,6753.007,92.046,375.723,374.02,0.0
52307.0,STARLINK-3755,PAYLOAD,2022-06-10 06:00:02,15.63923368,0.0001247,53.2174,129.7526,71.7987,200.2189,-0.0081546999999999,-0.00716911,0.0,0 STARLINK-3755,1 52307U 22041AY  22161.25002315 -.00716911  00000-0 -81547-2 0  9990,2 52307  53.2174 129.7526 0001247  71.7987 200.2189 15.63923368  9025,6754.474,92.076,377.181,375.497,0.0
52307.0,STARLINK-3755,PAYLOAD,2022-06-10 14:00:01,15.63413839,0.0001036,53.2175,128.1278,92.2615,257.1593,-0.0083301,-0.00717573,0.0,0 STARLINK-3755,1 52307U 22041AY  22161.58334491 -.00717573  00000-0 -83301-2 0  9994,2 52307  53.2175 128.1278 0001036  92.2615 257.1593 15.63413839  1305,6755.941,92.106,378.506,377.106,0.0
52307.0,STARLINK-3755,PAYLOAD,2022-06-10 22:00:00,15.62901757,0.0001092,53.2176,126.5043,75.558,350.7189,-0.008449,-0.00713604,0.0,0 STARLINK-3755,1 52307U 22041AY  22161.91667824 -.00713604  00000-0 -84490-2 0  9991,2 52307  53.2176 126.5043 0001092  75.5580 350.7189 15.62901757  1306,6757.417,92.136,380.02,378.544,0.0
52307.0,STARLINK-3755,PAYLOAD,2022-06-11 06:00:00,15.62392874,0.0001346,53.2176,124.8851,61.8045,80.7129,-0.0086378999999999,-0.00715026,0.0,0 STARLINK-3755,1 52307U 22041AY  22162.25001157 -.00715026  00000-0 -86379-2 0  9998,2 52307  53.2176 124.8851 0001346  61.8045  80.7129 15.62392874  9171,6758.884,92.166,381.659,379.839,0.0
52307.0,STARLINK-3755,PAYLOAD,2022-06-11 22:00:00,15.61372989,0.0001190999999999,53.2177,121.6442,76.2415,216.9231,-0.0089832,-0.00714557,0.0,0 STARLINK-3755,1 52307U 22041AY  22162.91667824 -.00714557  00000-0 -89832-2 0  9995,2 52307  53.2177 121.6442 0001191  76.2415 216.9231 15.61372989  1300,6761.8269999999975,92.227,384.49800000000016,382.887,0.0
52307.0,STARLINK-3755,PAYLOAD,2022-06-12 06:00:02,15.60864061,0.0001165,53.2175,120.0287,64.5466,303.0855,-0.0091995,-0.00717196,0.0,0 STARLINK-3755,1 52307U 22041AY  22163.25002315 -.00717196  00000-0 -91995-2 0  9996,2 52307  53.2175 120.0287 0001165  64.5466 303.0855 15.60864061  9332,6763.297,92.257,385.95,384.374,0.0
52307.0,STARLINK-3755,PAYLOAD,2022-06-12 14:00:01,15.60353287,0.0001073,53.2173,118.4109,74.2098,7.1496,-0.0093608,-0.00715616,0.0,0 STARLINK-3755,1 52307U 22041AY  22163.58334491 -.00715616  00000-0 -93608-2 0  9993,2 52307  53.2173 118.4109 0001073  74.2098   7.1496 15.60353287  1306,6764.773,92.287,387.364,385.912,0.0
52307.0,STARLINK-3755,PAYLOAD,2022-06-12 22:00:00,15.59841919,0.000124,53.2175,116.7953,77.8015,76.7368,-0.0095066,-0.00712865,0.0,0 STARLINK-3755,1 52307U 22041AY  22163.91667824 -.00712865  00000-0 -95066-2 0  9992,2 52307  53.2175 116.7953 0001240  77.8015  76.7368 15.59841919  1302,6766.251,92.317,388.955,387.277,0.0
52307.0,STARLINK-3755,PAYLOAD,2022-06-13 14:00:01,15.58825042,0.0001127,53.2175,113.5691,93.9841,205.0713,-0.009969,-0.00718464,0.0,0 STARLINK-3755,1 52307U 22041AY  22164.58334491 -.00718464  00000-0 -99690-2 0  9995,2 52307  53.2175 113.5691 0001127  93.9841 205.0713 15.58825042  9549,6769.193,92.377,391.821,390.296,0.0
52307.0,STARLINK-3755,PAYLOAD,2022-06-13 22:00:00,15.58313438,0.0001057,53.2177,111.9575,85.8996,284.4961,-0.010111,-0.00714951,0.0,0 STARLINK-3755,1 52307U 22041AY  22164.91667824 -.00714951  00000-0 -10111-1 0  9998,2 52307  53.2177 111.9575 0001057  85.8996 284.4961 15.58313438  1300,6770.675,92.408,393.256,391.824,0.0
52307.0,STARLINK-3755,PAYLOAD,2022-06-14 14:00:01,15.57292941,0.0001211,53.2175,108.7383,73.6051,77.6325,-0.010494,-0.00714048,0.0,0 STARLINK-3755,1 52307U 22041AY  22165.58334491 -.00714048  00000-0 -10494-1 0  9994,2 52307  53.2175 108.7383 0001211  73.6051  77.6325 15.57292941  1308,6773.6330000000025,92.468,396.318,394.677,0.0
52307.0,STARLINK-3755,PAYLOAD,2022-06-14 22:00:00,15.56782187,0.0001281999999999,53.2177,107.1307,77.3782,143.361,-0.010672,-0.00712503,0.0,0 STARLINK-3755,1 52307U 22041AY  22165.91667824 -.00712503  00000-0 -10672-1 0  9992,2 52307  53.2177 107.1307 0001282  77.3782 143.3610 15.56782187  9759,6775.114000000001,92.498,397.848,396.11,0.0
52307.0,STARLINK-3755,PAYLOAD,2022-06-15 14:00:01,15.5576328,0.0001042,53.2175,103.9189,95.1477,262.7561,-0.011124,-0.00714687,0.0,0 STARLINK-3755,1 52307U 22041AY  22166.58334491 -.00714687  00000-0 -11124-1 0  9995,2 52307  53.2175 103.9189 0001042  95.1477 262.7561 15.55763280  1308,6778.071999999999,92.559,400.643,399.231,0.0
52307.0,STARLINK-3755,PAYLOAD,2022-06-15 22:00:00,15.55253738,0.0001079,53.2175,102.315,84.7576,340.8089,-0.011341,-0.00714948,0.0,0 STARLINK-3755,1 52307U 22041AY  22166.91667824 -.00714948  00000-0 -11341-1 0  9992,2 52307  53.2175 102.3150 0001079  84.7576 340.8089 15.55253738  9902,6779.552,92.589,402.149,400.686,0.0
52307.0,STARLINK-3755,PAYLOAD,2022-06-16 02:00:01,15.5499724,0.0001193,53.2173,101.5144,90.7228,188.4455,-0.011407,-0.00712549,0.0,0 STARLINK-3755,1 52307U 22041AY  22167.08334491 -.00712549  00000-0 -11407-1 0  9990,2 52307  53.2173 101.5144 0001193  90.7228 188.4455 15.54997240  1303,6780.2980000000025,92.605,402.972,401.354,0.0
52307.0,STARLINK-3755,PAYLOAD,2022-06-19 14:00:01,15.49883887,0.0001163,53.2174,84.7468,92.4499,317.158,4.6273e-05,2.176e-05,0.0,0 STARLINK-3755,1 52307U 22041AY  22170.58334491  .00002176  00000-0  46273-4 0  9997,2 52307  53.2174  84.7468 0001163  92.4499 317.1580 15.49883887  1306,6795.2019999999975,92.91,417.858,416.277,0.0
52307.0,STARLINK-3755,PAYLOAD,2022-06-19 22:00:00,15.4988564,0.0001209,53.2174,83.1546,89.4664,21.0545,-6.970399999999999e-06,-8.47e-06,0.0,0 STARLINK-3755,1 52307U 22041AY  22170.91667824 -.00000847  00000-0 -69704-5 0  9993,2 52307  53.2174  83.1546 0001209  89.4664  21.0545 15.49885640  1308,6795.196999999999,92.91,417.884,416.241,0.0
52307.0,STARLINK-3755,PAYLOAD,2022-06-20 06:00:00,15.49914908,0.0001303,53.2166,81.5527,84.3348,87.1939,-3.1781999999999995e-05,-2.257e-05,0.0,0 STARLINK-3755,1 52307U 22041AY  22171.25001157 -.00002257  00000-0 -31782-4 0  9993,2 52307  53.2166  81.5527 0001303  84.3348  87.1939 15.49914908 10588,6795.111999999999,92.908,417.862,416.091,0.0
52307.0,STARLINK-3755,PAYLOAD,2022-06-20 14:00:01,15.49918548,0.0001238,53.2168,79.9574,94.1067,138.3667,-0.00085128,-0.00048524,0.0,0 STARLINK-3755,1 52307U 22041AY  22171.58334491 -.00048524  00000-0 -85128-3 0  9998,2 52307  53.2168  79.9574 0001238  94.1067 138.3667 15.49918548  1308,6795.101,92.908,417.807,416.125,0.0
52307.0,STARLINK-3755,PAYLOAD,2022-06-20 22:00:00,15.49884412,0.0001176,53.2169,78.3654,89.751,203.6563,-0.00030968,-0.00017986,0.0,0 STARLINK-3755,1 52307U 22041AY  22171.91667824 -.00017986  00000-0 -30968-3 0  9994,2 52307  53.2169  78.3654 0001176  89.7510 203.6563 15.49884412 10689,6795.201,92.91,417.865,416.267,0.0
52307.0,STARLINK-3755,PAYLOAD,2022-06-21 14:00:01,15.5008302,0.0001092,53.217,75.1828,93.8098,321.3761,-0.0097237,-0.00520764,0.0,0 STARLINK-3755,1 52307U 22041AY  22172.58334491 -.00520764  00000-0 -97237-2 0  9993,2 52307  53.2170  75.1828 0001092  93.8098 321.3761 15.50083020  1308,6794.62,92.898,417.227,415.74300000000005,0.0
52307.0,STARLINK-3755,PAYLOAD,2022-06-21 22:00:00,15.49521308,0.000124,53.2175,73.5954,98.6609,17.500999999999998,-0.00011292,-6.771e-05,0.0,0 STARLINK-3755,1 52307U 22041AY  22172.91667824 -.00006771  00000-0 -11292-3 0  9994,2 52307  53.2175  73.5954 0001240  98.6609  17.5010 15.49521308 10834,6796.262,92.932,418.97,417.285,0.0
